1 45407U 20019AZ  23337.04571382  .00020581  00000-0  13980-2 0  9999
2 45407  53.0555 252.0555 0001458 100.8470 259.2683 15.06361225205112
1 45407U 20019AZ  23337.97458060  .00014026  00000-0  95823-3 0  9992
2 45407  53.0543 247.8864 0001390  85.3522 274.7626 15.06416140205255
1 45407U 20019AZ  23339.10247357  .00003550  00000-0  25708-3 0  9999
2 45407  53.0546 242.8253 0001430  75.1104 285.0043 15.06406542205425
1 45407U 20019AZ  23339.10247357  .00003550  00000-0  25708-3 0  9999
2 45407  53.0546 242.8253 0001430  75.1104 285.0043 15.06406542205425
1 45407U 20019AZ  23340.09765984  .00005435  00000-0  38326-3 0  9994
2 45407  53.0544 238.3550 0001487  76.7206 283.3949 15.06423587205575
1 45407U 20019AZ  23340.09765984  .00005435  00000-0  38326-3 0  9994
2 45407  53.0544 238.3550 0001487  76.7206 283.3949 15.06423587205575
1 45407U 20019AZ  23341.02651809 -.00001280  00000-0 -67024-4 0  9992
2 45407  53.0557 234.1818 0001441  85.6038 274.5115 15.06402182205713
1 45407U 20019AZ  23341.02651809 -.00001280  00000-0 -67024-4 0  9992
2 45407  53.0557 234.1818 0001441  85.6038 274.5115 15.06402182205713
1 45407U 20019AZ  23342.08806627  .00001558  00000-0  12343-3 0  9998
2 45407  53.0550 229.4196 0001342  94.7264 265.3879 15.06405174205870
1 45407U 20019AZ  23342.08806627  .00001558  00000-0  12343-3 0  9998
2 45407  53.0550 229.4196 0001342  94.7264 265.3879 15.06405174205870
1 45407U 20019AZ  23343.68039585  .00001193  00000-0  98988-4 0  9991
2 45407  53.0549 222.2723 0001405  83.8357 276.2792 15.06398061206116
1 45407U 20019AZ  23343.68039585  .00001193  00000-0  98988-4 0  9991
2 45407  53.0549 222.2723 0001405  83.8357 276.2792 15.06398061206116
1 45407U 20019AZ  23344.80829135  .00001725  00000-0  13466-3 0  9992
2 45407  53.0548 217.2085 0001541  82.2651 277.8513 15.06400920206285
1 45407U 20019AZ  23344.87463710  .00001329  00000-0  10810-3 0  9992
2 45407  53.0544 216.9104 0001509  87.8203 272.2959 15.06401464206295
1 45407U 20019AZ  23345.86984199  .00000635  00000-0  61546-4 0  9993
2 45407  53.0536 212.4471 0001534  87.6257 272.4908 15.06397571206445
1 45407U 20019AZ  23345.86984199  .00000635  00000-0  61546-4 0  9993
2 45407  53.0536 212.4471 0001534  87.6257 272.4908 15.06397571206445
1 45407U 20019AZ  23346.93138931  .00001989  00000-0  15238-3 0  9996
2 45407  53.0530 207.6785 0001561  86.8817 273.2351 15.06402049206602
1 45407U 20019AZ  23346.93138931  .00001989  00000-0  15238-3 0  9996
2 45407  53.0530 207.6785 0001561  86.8817 273.2351 15.06402049206602
1 45407U 20019AZ  23347.92658717  .00002175  00000-0  16481-3 0  9994
2 45407  53.0532 203.2115 0001607  88.1658 271.9515 15.06406529206752
1 45407U 20019AZ  23348.85543442  .00003033  00000-0  22236-3 0  9994
2 45407  53.0531 199.0416 0001636  85.8023 274.3153 15.06413733206894
1 45407U 20019AZ  23348.85543442  .00003033  00000-0  22236-3 0  9994
2 45407  53.0531 199.0416 0001636  85.8023 274.3153 15.06413733206894
1 45407U 20019AZ  23349.78431456 -.00004454  00000-0 -28050-3 0  9998
2 45407  53.0534 194.8709 0001216 112.3096 247.8022 15.06376113207032
1 45407U 20019AZ  23349.85066544 -.00005906  00000-0 -37823-3 0  9999
2 45407  53.0531 194.5736 0001350 100.3849 259.7292 15.06369333207046
1 45407U 20019AZ  23349.85066544 -.00005906  00000-0 -37823-3 0  9999
2 45407  53.0531 194.5736 0001350 100.3849 259.7292 15.06369333207046
1 45407U 20019AZ  23350.77952323  .00002435  00000-0  18239-3 0  9993
2 45407  53.0530 190.4038 0001581  71.2393 288.8767 15.06384830207185
1 45407U 20019AZ  23350.77952323  .00002435  00000-0  18239-3 0  9993
2 45407  53.0530 190.4038 0001581  71.2393 288.8767 15.06384830207185
1 45407U 20019AZ  23351.77472387  .00009957  00000-0  68622-3 0  9998
2 45407  53.0531 185.9341 0001293  81.8096 278.3039 15.06409880207335
1 45407U 20019AZ  23351.77472387  .00009957  00000-0  68622-3 0  9998
2 45407  53.0531 185.9341 0001293  81.8096 278.3039 15.06409880207335
1 45407U 20019AZ  23352.83626525  .00000498  00000-0  52324-4 0  9995
2 45407  53.0533 181.1702 0001350  74.7765 285.3373 15.06408721207493
1 45407U 20019AZ  23352.83626525  .00000498  00000-0  52324-4 0  9995
2 45407  53.0533 181.1702 0001350  74.7765 285.3373 15.06408721207493
1 45407U 20019AZ  23353.83145654  .00002850  00000-0  21007-3 0  9992
2 45407  53.0537 176.7014 0001454  72.4250 287.6898 15.06416589207647
1 45407U 20019AZ  23353.83145654  .00002850  00000-0  21007-3 0  9992
2 45407  53.0537 176.7014 0001454  72.4250 287.6898 15.06416589207647
1 45407U 20019AZ  23354.76029368  .00005664  00000-0  39849-3 0  9997
2 45407  53.0532 172.5320 0001363  78.1307 281.9835 15.06430842207782
1 45407U 20019AZ  23354.76029368  .00005664  00000-0  39849-3 0  9997
2 45407  53.0532 172.5320 0001363  78.1307 281.9835 15.06430842207782
1 45407U 20019AZ  23355.75549342 -.00000353  00000-0 -47668-5 0  9998
2 45407  53.0538 168.0628 0001481  78.9767 281.1388 15.06412181207936
1 45407U 20019AZ  23355.75549342 -.00000353  00000-0 -47668-5 0  9998
2 45407  53.0538 168.0628 0001481  78.9767 281.1388 15.06412181207936
1 45407U 20019AZ  23356.61802351 -.00006030  00000-0 -38651-3 0  9994
2 45407  53.0528 164.1922 0001433  93.4319 266.6833 15.06374174208068
1 45407U 20019AZ  23356.75072402 -.00007853  00000-0 -50937-3 0  9990
2 45407  53.0527 163.5964 0001297  93.1025 267.0112 15.06363351208087
1 45407U 20019AZ  23356.75072402 -.00007853  00000-0 -50937-3 0  9990
2 45407  53.0527 163.5964 0001297  93.1025 267.0112 15.06363351208087
1 45407U 20019AZ  23357.48055257  .00000115  00000-0  26666-4 0  9995
2 45407  53.0530 160.3232 0001670  61.3002 298.8155 15.06373011208196
1 45407U 20019AZ  23357.61324598  .00002318  00000-0  17456-3 0  9990
2 45407  53.0521 159.7310 0001704  58.2290 301.8865 15.06380287208216
1 45407U 20019AZ  23357.74594175  .00007555  00000-0  52573-3 0  9991
2 45407  53.0530 159.1291 0001353  78.6333 281.4808 15.06387225208233
1 45407U 20019AZ  23357.74594175  .00007555  00000-0  52573-3 0  9991
2 45407  53.0530 159.1291 0001353  78.6333 281.4808 15.06387225208233
1 45407U 20019AZ  23358.60845347  .00012719  00000-0  87096-3 0  9993
2 45407  53.0528 155.2571 0001373  74.9363 285.1778 15.06410516208363
1 45407U 20019AZ  23358.67479935  .00012938  00000-0  88555-3 0  9990
2 45407  53.0529 154.9592 0001381  72.1032 288.0108 15.06414093208379
1 45407U 20019AZ  23358.67479935  .00012938  00000-0  88555-3 0  9990
2 45407  53.0529 154.9592 0001381  72.1032 288.0108 15.06414093208379
1 45407U 20019AZ  23359.40460677  .00007661  00000-0  53236-3 0  9990
2 45407  53.0525 151.6833 0001353  75.4452 284.6687 15.06418709208482
1 45407U 20019AZ  23359.60364326  .00007858  00000-0  54550-3 0  9994
2 45407  53.0523 150.7905 0001359  74.4092 285.7047 15.06423369208519
1 45407U 20019AZ  23359.73633472  .00007091  00000-0  49413-3 0  9990
2 45407  53.0523 150.1948 0001347  75.8878 284.2261 15.06423900208539
1 45407U 20019AZ  23360.59882256  .00007958  00000-0  55197-3 0  9990
2 45407  53.0519 146.3230 0001298  81.6348 278.4788 15.06439280208668
1 45407U 20019AZ  23360.73151266  .00008079  00000-0  56000-3 0  9995
2 45407  53.0521 145.7275 0001307  77.8831 282.2305 15.06441371208682
1 45407U 20019AZ  23360.73151266  .00008079  00000-0  56000-3 0  9995
2 45407  53.0521 145.7275 0001307  77.8831 282.2305 15.06441371208682
1 45407U 20019AZ  23361.39498401 -.00003839  00000-0 -23896-3 0  9991
2 45407  53.0523 142.7483 0001316  86.7013 273.4127 15.06406135208787
1 45407U 20019AZ  23361.59402857 -.00003762  00000-0 -23375-3 0  9990
2 45407  53.0525 141.8546 0001608  75.5942 284.5225 15.06401415208812
1 45407U 20019AZ  23361.66037585 -.00005695  00000-0 -36380-3 0  9997
2 45407  53.0528 141.5568 0001361  84.8794 275.2350 15.06395812208820
1 45407U 20019AZ  23361.66037585 -.00005695  00000-0 -36380-3 0  9997
2 45407  53.0528 141.5568 0001361  84.8794 275.2350 15.06395812208820
1 45407U 20019AZ  23362.58924249 -.00002899  00000-0 -17588-3 0  9993
2 45407  53.0533 137.3863 0001354  94.1202 265.9941 15.06385417208964
1 45407U 20019AZ  23362.78828413 -.00003315  00000-0 -20384-3 0  9993
2 45407  53.0535 136.4930 0001347  92.4874 267.6269 15.06389188208993
1 45407U 20019AZ  23362.78828413 -.00003315  00000-0 -20384-3 0  9993
2 45407  53.0535 136.4930 0001347  92.4874 267.6269 15.06389188208993
1 45407U 20019AZ  23363.58445229  .00002557  00000-0  19059-3 0  9994
2 45407  53.0539 132.9206 0001356  90.7590 269.3554 15.06385936209118
1 45407U 20019AZ  23363.65079964  .00002664  00000-0  19771-3 0  9991
2 45407  53.0539 132.6228 0001348  89.9957 270.1186 15.06386582209127
1 45407U 20019AZ  23364.51331395  .00002259  00000-0  17055-3 0  9999
2 45407  53.0538 128.7507 0001351  95.3433 264.7710 15.06391547209259
1 45407U 20019AZ  23364.57966062  .00002600  00000-0  19339-3 0  9997
2 45407  53.0533 128.4527 0001359  85.2886 274.8258 15.06393222209263
1 45407U 20019AZ  23364.64600734  .00002740  00000-0  20280-3 0  9998
2 45407  53.0533 128.1549 0001356  84.4048 275.7095 15.06394205209274
